ROBUSTA 1F (MTCUBE-2)
1 53109U 22080E   26177.67811985 -.00000003  00000-0  00000-0 0  9992
2 53109  70.1443 294.9444 0008985 287.5437  72.4241  6.42583228 92675
BLUEWALKER-3
1 53807U 22111AL  26177.86019810  .00006324  00000-0  17470-3 0  9993
2 53807  53.2302 348.5562 0005465 191.5277 168.5604 15.38390554211697
ELEKTRO-L4
1 55506U 23016A   26177.77589014 -.00000047  00000-0  00000+0 0  9998
2 55506   0.0836 149.1708 0000995  32.9908 177.8339  1.00271408 12435
SHARJAHSAT-1
1 55104U 23001CZ  26178.12431191  .00022734  00000-0  41436-3 0  9996
2 55104  97.3178 247.0294 0006439  74.8514 285.3449 15.49450115194038
METEOR M2-3
1 57166U 23091A   26178.21623993  .00000009  00000-0  22775-4 0  9995
2 57166  98.6078 232.9892 0004836 130.9114 229.2484 14.24047573155942
RESHUCUBE-2 (RS37S)
1 57168U 23091C   26178.19196493  .00009933  00000-0  37995-3 0  9998
2 57168  97.5026 240.5607 0012555  75.8615 284.4017 15.26712995165782
RASSVET 1-1
1 57169U 23091D   26178.16489079  .00009208  00000-0  37850-3 0  9996
2 57169  97.5112 239.7245 0011467  72.2977 287.9511 15.24339366165681
RASSVET 1-2
1 57170U 23091E   26178.16504407  .00009233  00000-0  37968-3 0  9999
2 57170  97.5118 239.8029 0010264  65.5334 294.6972 15.24338992165686
RASSVET 1-3
1 57171U 23091F   26178.16466947  .00009321  00000-0  38298-3 0  9991
2 57171  97.5113 239.7525 0012374  81.0813 279.1824 15.24340949165680
UMKA-1 (RS40S)
1 57172U 23091G   26178.16038756  .00006694  00000-0  30481-3 0  9991
2 57172  97.5052 236.8193 0014289  86.9277 273.3593 15.20930306165527
SATURN (RS43S)
1 57174U 23091J   26178.16859066  .00004529  00000-0  25249-3 0  9999
2 57174  97.5053 231.1227 0014790 111.9084 248.3722 15.13994375165140
CUBEBEL-2 (EU11S)
1 57175U 23091K   26178.19509058  .00015054  00000-0  52932-3 0  9990
2 57175  97.5054 241.5021 0011059  84.1929 276.0571 15.29398667165838
SITRO-AIS-5 (ANOKHIN)
1 57176U 23091L   26178.21015529  .00013309  00000-0  46415-3 0  9999
2 57176  97.5063 242.2056 0012365  72.3105 287.9484 15.29680365165878
ZORKIY-2M
1 57177U 23091M   26178.21196009  .00007290  00000-0  33064-3 0  9991
2 57177  97.5092 237.1455 0014767  84.1426 276.1493 15.21031848165522
CUBESX-HSE-3 (RS42S)
1 57178U 23091N   26178.17161628  .00014367  00000-0  47419-3 0  9998
2 57178  97.5095 243.8856 0011500  63.4891 296.7528 15.31460655165950
PHI-DEMO
1 57181U 23091R   26178.20362341  .00003484  00000-0  19193-3 0  9997
2 57181  97.5065 232.0207 0016762 102.4556 257.8552 15.14558945165202
MONITOR-3 (RS58S)
1 57180U 23091Q   26178.15278485  .00011011  00000-0  40432-3 0  9990
2 57180  97.5086 241.6723 0012722  69.8950 290.3656 15.28037026165810
NORBY-2
1 57179U 23091P   26178.18136591  .00004825  00000-0  24987-3 0  9994
2 57179  97.5093 234.0721 0016435  91.5792 268.7324 15.16566023165307
MONITOR-4 (RS57S)
1 57182U 23091S   26178.19677009  .00011602  00000-0  42472-3 0  9993
2 57182  97.5080 241.6885 0012699  69.9430 290.3175 15.28122656165823
MONITOR-2 (RS39S)
1 57184U 23091U   26178.19421676  .00005326  00000-0  25733-3 0  9999
2 57184  97.5073 236.4124 0012679  80.8827 279.3842 15.18999949165470
SVYATOBOR-1 (RS60S)
1 57187U 23091X   26178.15300618  .00009606  00000-0  36707-3 0  9998
2 57187  97.5091 242.0255 0010467  64.2445 295.9873 15.26779304165834
VIZARD-METEO (RS38S)
1 57189U 23091Z   26178.17905312  .00018318  00000-0  51828-3 0  9995
2 57189  97.5095 247.8656 0007499  46.6215 313.5652 15.36335913166229
SITRO-AIS-6 (CHIRKIN)
1 57192U 23091AC  26178.21233131  .00010735  00000-0  41771-3 0  9998
2 57192  97.5069 241.2734 0012795  75.5547 284.7110 15.26120880165819
SITRO-AIS-8 (SHCHUKIN)
1 57193U 23091AD  26178.20954278  .00016030  00000-0  51345-3 0  9992
2 57193  97.5059 243.8346 0011298  68.7327 291.5120 15.32400090165989
SITRO-AIS-7 (SHEFFER)
1 57194U 23091AE  26178.15196017  .00010225  00000-0  40186-3 0  9997
2 57194  97.5067 241.0326 0012722  76.6719 283.5936 15.25803108165797
AVION KALUGA 650 (RS24S)
1 57195U 23091AF  26178.16594720  .00006465  00000-0  29883-3 0  9994
2 57195  97.5091 237.7020 0011812  79.3270 280.9294 15.20455656165546
SITRO-AIS-10 (KATYS)
1 57199U 23091AK  26178.19862197  .00021191  00000-0  55010-3 0  9991
2 57199  97.5085 248.9819 0006691  48.9446 311.2376 15.38980789166302
SITRO-AIS-9 (BURDAEV)
1 57201U 23091AM  26178.16320620  .00021814  00000-0  57546-3 0  9990
2 57201  97.5083 248.6677 0006946  49.2869 310.8978 15.38478191166288
UTMN-2 (RS27S)
1 57203U 23091AP  26178.18377157  .00014101  00000-0  45402-3 0  9990
2 57203  97.5091 245.5441 0008613  53.3481 306.8551 15.32289467166072
SITRO-AIS-12 (FARTUSHNY)
1 57204U 23091AQ  26178.15192638  .00022358  00000-0  58418-3 0  9991
2 57204  97.5095 249.1295 0006445  43.9683 316.2074 15.38771879166304
AHMAT-1 (RS41S)
1 57206U 23091AS  26178.16338352  .00093414  00000-0  94483-3 0  9992
2 57206  97.5041 258.6248 0001316 314.4639  45.6512 15.65001059166956
SITRO-AIS-11 (SMIRENNY)
1 57208U 23091AU  26178.16257279  .00022566  00000-0  58138-3 0  9999
2 57208  97.5094 249.3933 0006328  43.7088 316.4657 15.39202325166322
KUZGTU-1 (RS47S)
1 57217U 23091AV  26178.17161485  .00013639  00000-0  46980-3 0  9996
2 57217  97.5067 242.7539 0011859  67.0268 293.2222 15.30083884165906
METEOR M2-4
1 59051U 24039A   26178.17199954 -.00000004  00000-0  17661-4 0  9997
2 59051  98.7014 137.3446 0007817 134.1903 225.9919 14.22430465120688
PARS-1
1 59065U 24039Q   26178.21864451  .00011493  00000-0  23748-3 0  9993
2 59065  97.4819 159.4554 0011482  82.3324 277.9228 15.45927277130196
SITRO-AIS-25
1 59066U 24039R   26178.22487885  .00002369  00000-0  18687-3 0  9995
2 59066  95.3907 241.9903 0142577 293.2463  65.3804 14.93558977126221
SITRO-AIS-26
1 59067U 24039S   26178.22762556  .00002335  00000-0  18511-3 0  9996
2 59067  95.3908 241.8877 0142930 293.8342  64.7957 14.93353003126211
SITRO-AIS-27
1 59068U 24039T   26178.19505751  .00003229  00000-0  25262-3 0  9999
2 59068  95.3913 242.1417 0141841 292.5238  66.1026 14.93775975126233
SITRO-AIS-28
1 59071U 24039U   26178.17227277  .00002797  00000-0  21908-3 0  9997
2 59071  95.3910 242.1738 0141854 292.4264  66.1987 14.93807029126234
SONATE-2
1 59112U 24043Q   26177.95845668  .00043201  00000-0  54516-3 0  9999
2 59112  97.5532 328.9589 0007313 163.6237 196.5256 15.59436847129410
HORS-1
1 57188U 23091Y   26178.20337509  .00010258  00000-0  39050-3 0  9993
2 57188  97.5069 241.8371 0009907  64.2285 295.9975 15.26891611165845
HORS-2
1 57196U 23091AG  26178.15757772  .00014747  00000-0  47692-3 0  9992
2 57196  97.5092 245.3238 0008689  57.6650 302.5432 15.32136068166051
ZORKIY-2M 6
1 59774U 24092B   26178.18383748  .00011272  00000-0  40355-3 0  9998
2 59774  97.6496 307.5658 0009667 142.6301 217.5613 15.28902650117062
ZORKIY-2M 4
1 59775U 24092C   26178.15970672  .00011198  00000-0  39236-3 0  9997
2 59775  97.6642 309.4200 0009696 144.7546 215.4337 15.29608457117100
SITRO-AIS-53
1 59776U 24092D   26178.11854891  .00021451  00000-0  58737-3 0  9998
2 59776  97.6583 311.6078 0007917 115.8195 244.3866 15.37323024117275
SITRO-AIS-54
1 59777U 24092E   26177.80818412  .00020362  00000-0  55946-3 0  9992
2 59777  97.6578 311.2396 0007987 117.2582 242.9477 15.37227757117225
SITRO-AIS-56
1 59778U 24092F   26177.90950917  .00022101  00000-0  59197-3 0  9996
2 59778  97.6576 311.6803 0008160 116.3749 243.8333 15.37997832117263
RASSVET 1-4
1 59779U 24092G   26178.21772679  .00000150  00000-0  72858-4 0  9999
2 59779  98.6712 297.2482 0012086 173.4342 186.7001 14.31849080110336
RASSVET 1-5
1 59780U 24092H   26178.21762943  .00000154  00000-0  74085-4 0  9992
2 59780  98.6713 297.2406 0012430 174.9799 185.1511 14.31850316110333
RASSVET 1-6
1 59781U 24092J   26178.21617534  .00000145  00000-0  70701-4 0  9999
2 59781  98.6712 297.2446 0012309 175.1480 184.9824 14.31850991110335
SITRO-AIS-55
1 59809U 24092K   26178.19048182  .00021110  00000-0  58413-3 0  9994
2 59809  97.6575 311.4423 0008075 115.5859 244.6220 15.36998942116772
MESAT-1
1 60209U 24125G   26178.15326325  .00068241  00000-0  71020-3 0  9996
2 60209  97.2279  35.8697 0010466 169.3178 190.8306 15.64300027111126
ISTSAT-1
1 60238U 24128D   26178.17363413  .00006293  00000-0  37442-3 0  9991
2 60238  61.9859 170.8184 0036798 133.0980 227.3205 15.11724018107970
IONOSFERA-M 01
1 61735U 24199A   26178.18006804  .00000042  00000-0  38212-4 0  9994
2 61735  98.7162  51.2462 0002152  97.0060 263.1362 14.22755988129128
IONOSFERA-M 02
1 61736U 24199B   26178.21433899  .00000058  00000-0  45341-4 0  9995
2 61736  98.7161  51.1907 0000617  40.3229 319.7995 14.22759326132251
SITRO-AIS-16
1 61737U 24199C   26178.17923986  .00003025  00000-0  26295-3 0  9995
2 61737  97.3240  16.8841 0007999  44.6187 315.5679 14.97646667133316
SITRO-AIS-15
1 61738U 24199D   26178.16336547  .00003373  00000-0  29264-3 0  9991
2 61738  97.3226  16.9076 0007439  46.1431 314.0406 14.97655826133319
SITRO-AIS-21
1 61739U 24199E   26178.17944237  .00002450  00000-0  22746-3 0  9997
2 61739  97.3251  15.3119 0013539  36.1964 324.0172 14.95180516133247
SITRO-AIS-22
1 61740U 24199F   26178.20369336  .00002457  00000-0  22369-3 0  9992
2 61740  97.3240  15.5775 0013262  34.3298 325.8779 14.95948871133417
SITRO-AIS-24
1 61741U 24199G   26178.18719175  .00001979  00000-0  17997-3 0  9999
2 61741  97.3249  15.6088 0013400  35.9586 324.2535 14.96200684133389
SITRO-AIS-23
1 61742U 24199H   26178.19091161  .00002010  00000-0  18371-3 0  9993
2 61742  97.3245  15.5953 0013304  35.5901 324.6206 14.95978131133260
SITRO-AIS-13
1 61743U 24199J   26178.15032823  .00002891  00000-0  24980-3 0  9990
2 61743  97.3217  17.0612 0006870  43.6616 316.5150 14.97922132133486
CSTP-2.11
1 61744U 24199K   26178.10331094  .00029801  00000-0  48711-3 0  9996
2 61744  97.2945  53.4727 0006315 224.4651 135.6095 15.52477465135900
